CCSDS_OMM_VERS = 2.0
CREATION_DATE  = 
ORIGINATOR     = 

OBJECT_NAME    = SL-16 R/B
OBJECT_ID      = 1998-043G
CENTER_NAME    = EARTH
REF_FRAME      = TEME
TIME_SYSTEM    = UTC
MEAN_ELEMENT_THEORY = SGP/SGP4

EPOCH          = 2026-02-14T10:29:44.160288
MEAN_MOTION    = 14.26044194
ECCENTRICITY   = .0010994
INCLINATION    = 98.8214
RA_OF_ASC_NODE = 358.6418
ARG_OF_PERICENTER = 82.6171
MEAN_ANOMALY   = 277.6258

EPHEMERIS_TYPE = 0
CLASSIFICATION_TYPE = U
NORAD_CAT_ID   = 25400
ELEMENT_SET_NO = 999
REV_AT_EPOCH   = 43567
BSTAR          = .50632E-4
MEAN_MOTION_DOT = .76E-6
MEAN_MOTION_DDOT = 0

CCSDS_OMM_VERS = 2.0
CREATION_DATE  = 
ORIGINATOR     = 

OBJECT_NAME    = SL-16 R/B
OBJECT_ID      = 1998-045B
CENTER_NAME    = EARTH
REF_FRAME      = TEME
TIME_SYSTEM    = UTC
MEAN_ELEMENT_THEORY = SGP/SGP4

EPOCH          = 2026-02-14T14:49:05.724768
MEAN_MOTION    = 14.16187649
ECCENTRICITY   = .0005632
INCLINATION    = 71.0086
RA_OF_ASC_NODE = 230.0933
ARG_OF_PERICENTER = 50.2856
MEAN_ANOMALY   = 309.8763

EPHEMERIS_TYPE = 0
CLASSIFICATION_TYPE = U
NORAD_CAT_ID   = 25407
ELEMENT_SET_NO = 999
REV_AT_EPOCH   = 42383
BSTAR          = .18007E-3
MEAN_MOTION_DOT = .309E-5
MEAN_MOTION_DDOT = 0

CCSDS_OMM_VERS = 2.0
CREATION_DATE  = 
ORIGINATOR     = 

OBJECT_NAME    = ISS (ZARYA)
OBJECT_ID      = 1998-067A
CENTER_NAME    = EARTH
REF_FRAME      = TEME
TIME_SYSTEM    = UTC
MEAN_ELEMENT_THEORY = SGP/SGP4

EPOCH          = 2026-02-14T12:53:26.369664
MEAN_MOTION    = 15.48597515
ECCENTRICITY   = .0011057
INCLINATION    = 51.6315
RA_OF_ASC_NODE = 186.8042
ARG_OF_PERICENTER = 98.0666
MEAN_ANOMALY   = 262.1577

EPHEMERIS_TYPE = 0
CLASSIFICATION_TYPE = U
NORAD_CAT_ID   = 25544
ELEMENT_SET_NO = 999
REV_AT_EPOCH   = 55274
BSTAR          = .14907E-3
MEAN_MOTION_DOT = .7669E-4
MEAN_MOTION_DDOT = 0

CCSDS_OMM_VERS = 2.0
CREATION_DATE  = 
ORIGINATOR     = 

OBJECT_NAME    = CZ-4B R/B
OBJECT_ID      = 1999-025C
CENTER_NAME    = EARTH
REF_FRAME      = TEME
TIME_SYSTEM    = UTC
MEAN_ELEMENT_THEORY = SGP/SGP4

EPOCH          = 2026-02-14T14:44:10.757760
MEAN_MOTION    = 14.18260619
ECCENTRICITY   = .0037946
INCLINATION    = 98.6673
RA_OF_ASC_NODE = 90.4371
ARG_OF_PERICENTER = 52.4882
MEAN_ANOMALY   = 100.1774

EPHEMERIS_TYPE = 0
CLASSIFICATION_TYPE = U
NORAD_CAT_ID   = 25732
ELEMENT_SET_NO = 999
REV_AT_EPOCH   = 38489
BSTAR          = .54063E-4
MEAN_MOTION_DOT = .69E-6
MEAN_MOTION_DDOT = 0

CCSDS_OMM_VERS = 2.0
CREATION_DATE  = 
ORIGINATOR     = 

OBJECT_NAME    = OKEAN-O
OBJECT_ID      = 1999-039A
CENTER_NAME    = EARTH
REF_FRAME      = TEME
TIME_SYSTEM    = UTC
MEAN_ELEMENT_THEORY = SGP/SGP4

EPOCH          = 2026-02-14T14:27:20.282112
MEAN_MOTION    = 14.80296823
ECCENTRICITY   = .0001851
INCLINATION    = 97.9494
RA_OF_ASC_NODE = 105.7225
ARG_OF_PERICENTER = 82.7702
MEAN_ANOMALY   = 277.3720

EPHEMERIS_TYPE = 0
CLASSIFICATION_TYPE = U
NORAD_CAT_ID   = 25860
ELEMENT_SET_NO = 999
REV_AT_EPOCH   = 43097
BSTAR          = .98724E-4
MEAN_MOTION_DOT = .7E-5
MEAN_MOTION_DDOT = 0

CCSDS_OMM_VERS = 2.0
CREATION_DATE  = 
ORIGINATOR     = 

OBJECT_NAME    = SL-16 R/B
OBJECT_ID      = 1999-039B
CENTER_NAME    = EARTH
REF_FRAME      = TEME
TIME_SYSTEM    = UTC
MEAN_ELEMENT_THEORY = SGP/SGP4

EPOCH          = 2026-02-14T14:29:44.952000
MEAN_MOTION    = 14.81698339
ECCENTRICITY   = .0014188
INCLINATION    = 98.0017
RA_OF_ASC_NODE = 104.7289
ARG_OF_PERICENTER = 337.4539
MEAN_ANOMALY   = 22.6048

EPHEMERIS_TYPE = 0
CLASSIFICATION_TYPE = U
NORAD_CAT_ID   = 25861
ELEMENT_SET_NO = 999
REV_AT_EPOCH   = 43344
BSTAR          = .8582E-4
MEAN_MOTION_DOT = .623E-5
MEAN_MOTION_DDOT = 0

CCSDS_OMM_VERS = 2.0
CREATION_DATE  = 
ORIGINATOR     = 

OBJECT_NAME    = DELTA 2 R/B
OBJECT_ID      = 1999-041E
CENTER_NAME    = EARTH
REF_FRAME      = TEME
TIME_SYSTEM    = UTC
MEAN_ELEMENT_THEORY = SGP/SGP4

EPOCH          = 2026-02-14T08:42:49.419072
MEAN_MOTION    = 14.11747783
ECCENTRICITY   = .0502253
INCLINATION    = 51.7655
RA_OF_ASC_NODE = 34.4343
ARG_OF_PERICENTER = 279.5273
MEAN_ANOMALY   = 74.9260

EPHEMERIS_TYPE = 0
CLASSIFICATION_TYPE = U
NORAD_CAT_ID   = 25876
ELEMENT_SET_NO = 999
REV_AT_EPOCH   = 35973
BSTAR          = .4025E-3
MEAN_MOTION_DOT = .227E-4
MEAN_MOTION_DDOT = 0

CCSDS_OMM_VERS = 2.0
CREATION_DATE  = 
ORIGINATOR     = 

OBJECT_NAME    = HELIOS 1B
OBJECT_ID      = 1999-064A
CENTER_NAME    = EARTH
REF_FRAME      = TEME
TIME_SYSTEM    = UTC
MEAN_ELEMENT_THEORY = SGP/SGP4

EPOCH          = 2026-02-14T15:26:16.946016
MEAN_MOTION    = 14.87600116
ECCENTRICITY   = .0002252
INCLINATION    = 98.1723
RA_OF_ASC_NODE = 307.2068
ARG_OF_PERICENTER = 105.3015
MEAN_ANOMALY   = 254.8449

EPHEMERIS_TYPE = 0
CLASSIFICATION_TYPE = U
NORAD_CAT_ID   = 25977
ELEMENT_SET_NO = 999
REV_AT_EPOCH   = 68183
BSTAR          = .20468E-3
MEAN_MOTION_DOT = .1802E-4
MEAN_MOTION_DDOT = 0

CCSDS_OMM_VERS = 2.0
CREATION_DATE  = 
ORIGINATOR     = 

OBJECT_NAME    = TERRA
OBJECT_ID      = 1999-068A
CENTER_NAME    = EARTH
REF_FRAME      = TEME
TIME_SYSTEM    = UTC
MEAN_ELEMENT_THEORY = SGP/SGP4

EPOCH          = 2026-02-14T15:39:28.797696
MEAN_MOTION    = 14.60989209
ECCENTRICITY   = .0001091
INCLINATION    = 97.9644
RA_OF_ASC_NODE = 99.9614
ARG_OF_PERICENTER = 229.9074
MEAN_ANOMALY   = 282.3729

EPHEMERIS_TYPE = 0
CLASSIFICATION_TYPE = U
NORAD_CAT_ID   = 25994
ELEMENT_SET_NO = 999
REV_AT_EPOCH   = 39171
BSTAR          = .10639E-3
MEAN_MOTION_DOT = .477E-5
MEAN_MOTION_DDOT = 0

CCSDS_OMM_VERS = 2.0
CREATION_DATE  = 
ORIGINATOR     = 

OBJECT_NAME    = SL-16 R/B
OBJECT_ID      = 2000-006B
CENTER_NAME    = EARTH
REF_FRAME      = TEME
TIME_SYSTEM    = UTC
MEAN_ELEMENT_THEORY = SGP/SGP4

EPOCH          = 2026-02-14T15:02:36.756384
MEAN_MOTION    = 14.15819152
ECCENTRICITY   = .0018122
INCLINATION    = 71.0027
RA_OF_ASC_NODE = 146.3302
ARG_OF_PERICENTER = 222.7766
MEAN_ANOMALY   = 137.1947

EPHEMERIS_TYPE = 0
CLASSIFICATION_TYPE = U
NORAD_CAT_ID   = 26070
ELEMENT_SET_NO = 999
REV_AT_EPOCH   = 34529
BSTAR          = -.89383E-4
MEAN_MOTION_DOT = -.224E-5
MEAN_MOTION_DDOT = 0

CCSDS_OMM_VERS = 2.0
CREATION_DATE  = 
ORIGINATOR     = 

OBJECT_NAME    = TITAN 4B R/B
OBJECT_ID      = 2000-047B
CENTER_NAME    = EARTH
REF_FRAME      = TEME
TIME_SYSTEM    = UTC
MEAN_ELEMENT_THEORY = SGP/SGP4

EPOCH          = 2026-02-14T13:41:53.517120
MEAN_MOTION    = 15.09360567
ECCENTRICITY   = .0037077
INCLINATION    = 67.9888
RA_OF_ASC_NODE = 105.5113
ARG_OF_PERICENTER = 63.7237
MEAN_ANOMALY   = 296.7714

EPHEMERIS_TYPE = 0
CLASSIFICATION_TYPE = U
NORAD_CAT_ID   = 26474
ELEMENT_SET_NO = 999
REV_AT_EPOCH   = 38942
BSTAR          = .19924E-3
MEAN_MOTION_DOT = .3103E-4
MEAN_MOTION_DDOT = 0

CCSDS_OMM_VERS = 2.0
CREATION_DATE  = 
ORIGINATOR     = 

OBJECT_NAME    = ENVISAT
OBJECT_ID      = 2002-009A
CENTER_NAME    = EARTH
REF_FRAME      = TEME
TIME_SYSTEM    = UTC
MEAN_ELEMENT_THEORY = SGP/SGP4

EPOCH          = 2026-02-14T11:13:44.292000
MEAN_MOTION    = 14.39028171
ECCENTRICITY   = .000135
INCLINATION    = 98.3688
RA_OF_ASC_NODE = 359.6241
ARG_OF_PERICENTER = 87.7408
MEAN_ANOMALY   = 24.2305

EPHEMERIS_TYPE = 0
CLASSIFICATION_TYPE = U
NORAD_CAT_ID   = 27386
ELEMENT_SET_NO = 999
REV_AT_EPOCH   = 25583
BSTAR          = .60789E-4
MEAN_MOTION_DOT = .145E-5
MEAN_MOTION_DDOT = 0

