SL-16 R/B               
1 25400U 98043G   26045.43731667  .00000076  00000+0  50632-4 0  9991
2 25400  98.8214 358.6418 0010994  82.6171 277.6258 14.26044194435675
SL-16 R/B               
1 25407U 98045B   26045.61742737  .00000309  00000+0  18007-3 0  9998
2 25407  71.0086 230.0933 0005632  50.2856 309.8763 14.16187649423837
ISS (ZARYA)             
1 25544U 98067A   26045.53711076  .00007669  00000+0  14907-3 0  9998
2 25544  51.6315 186.8042 0011057  98.0666 262.1577 15.48597515552744
CZ-4B R/B               
1 25732U 99025C   26045.61401340  .00000069  00000+0  54063-4 0  9996
2 25732  98.6673  90.4371 0037946  52.4882 100.1774 14.18260619384892
OKEAN-O                 
1 25860U 99039A   26045.60231808  .00000700  00000+0  98724-4 0  9996
2 25860  97.9494 105.7225 0001851  82.7702 277.3720 14.80296823430972
SL-16 R/B               
1 25861U 99039B   26045.60399250  .00000623  00000+0  85820-4 0  9990
2 25861  98.0017 104.7289 0014188 337.4539  22.6048 14.81698339433448
DELTA 2 R/B             
1 25876U 99041E   26045.36307198  .00002270  00000+0  40250-3 0  9999
2 25876  51.7655  34.4343 0502253 279.5273  74.9260 14.11747783359730
HELIOS 1B               
1 25977U 99064A   26045.64325169  .00001802  00000+0  20468-3 0  9994
2 25977  98.1723 307.2068 0002252 105.3015 254.8449 14.87600116681830
TERRA                   
1 25994U 99068A   26045.65241664  .00000477  00000+0  10639-3 0  9991
2 25994  97.9644  99.9614 0001091 229.9074 282.3729 14.60989209391714
SL-16 R/B               
1 26070U 00006B   26045.62681431 -.00000224  00000+0 -89383-4 0  9993
2 26070  71.0027 146.3302 0018122 222.7766 137.1947 14.15819152345291
TITAN 4B R/B            
1 26474U 00047B   26045.57075830  .00003103  00000+0  19924-3 0  9990
2 26474  67.9888 105.5113 0037077  63.7237 296.7714 15.09360567389423
ENVISAT                 
1 27386U 02009A   26045.46787375  .00000145  00000+0  60789-4 0  9994
2 27386  98.3688 359.6241 0001350  87.7408  24.2305 14.39028171255838
